2023-011B               
1 55325U 23011B   23029.01590279  .00001295  00000+0  10000-3 0  9996
2 55325  40.5067 256.2441 0003950 232.1951 279.5911 15.05373201   605
2023-011C               
1 55326U 23011C   23029.01591741  .00026599  00000+0  18121-2 0  9997
2 55326  40.5085 256.2381 0003384 213.4886 300.6124 15.05679148   600
2023-011D               
1 55327U 23011D   23029.05343466  .00007444  00000+0  51629-3 0  9990
2 55327  40.5046 256.0068 0002222 242.4501 117.6392 15.05700398   610
2023-011E               
1 55328U 23011E   23028.70122918  .00075735  00000+0  10539-2 0  9991
2 55328  40.4925 256.8448 0167325 153.1830 207.7715 15.41287408   583
